STARLINK-32511          
1 61727U 24196W   26055.47614026  .00000141  00000+0  16899-4 0  9995
2 61727  53.1591 162.7053 0000902  98.2722 261.8381 15.30185726 75137
STARLINK-32475          
1 61728U 24196X   26055.46980875  .00000008  00000+0  12401-4 0  9990
2 61728  53.1597 162.6674 0000940  72.5916 287.5188 15.30177718 75136
STARLINK-32442          
1 61729U 24196Y   26055.47296541  .00002507  00000+0  96715-4 0  9998
2 61729  53.1607 162.6864 0001636  83.3788 276.7399 15.30214201 75133
STARLINK-32362          
1 61845U 24202A   26055.06419480 -.00000459  00000+0 -71739-5 0  9995
2 61845  43.0017 303.7092 0000996 261.3413  98.7326 15.27567360 73961
STARLINK-32472          
1 61846U 24202B   26055.10403161  .00012829  00000+0  47609-3 0  9999
2 61846  43.0001 304.0126 0000828 240.3806 119.6963 15.27498632 73374
STARLINK-32352          
1 61847U 24202C   26054.73211988  .00000937  00000+0  43589-4 0  9993
2 61847  43.0026 305.5148 0001241 276.0546  84.0165 15.27563095 73330
STARLINK-32427          
1 61848U 24202D   26055.40140049 -.00000308  00000+0 -16665-5 0  9998
2 61848  43.0038 301.9376 0001469 257.5558 102.5129 15.27574449 73427
STARLINK-32346          
1 61849U 24202E   26055.40526730  .00006672  00000+0  25209-3 0  9994
2 61849  43.0062 301.9640 0001702 245.2523 114.8152 15.27539070 73428
STARLINK-32330          
1 61850U 24202F   26055.10128578 -.00000469  00000+0 -75243-5 0  9996
2 61850  43.0014 314.3722 0001021 265.1353  94.9382 15.27580844 73262
STARLINK-32379          
1 61851U 24202G   26055.38213015  .00000202  00000+0  16858-4 0  9997
2 61851  43.0013 301.7924 0000848 284.6620  75.4138 15.27565736 73429
STARLINK-32433          
1 61852U 24202H   26055.43207205 -.00003372  00000+0 -11303-3 0  9990
2 61852  43.0030 312.5550 0001545 267.0729  92.9946 15.27585469 73318
STARLINK-32394          
1 61853U 24202J   26055.10770714 -.00001630  00000+0 -49708-4 0  9991
2 61853  43.0043 314.4192 0001876 257.4661 102.5981 15.27584466 73257
STARLINK-32486          
1 61854U 24202K   26055.04618194 -.00000938  00000+0 -24574-4 0  9992
2 61854  43.0042 314.8171 0001031 281.4710  78.6026 15.27576915 73256
STARLINK-32391          
1 61855U 24202L   26055.11542939 -.00000817  00000+0 -20183-4 0  9992
2 61855  43.0030 314.4760 0000938 271.0556  89.0188 15.27566300 73254
STARLINK-32483          
1 61856U 24202M   26055.11927749  .00001853  00000+0  76871-4 0  9993
2 61856  43.0004 314.5063 0000968 269.1256  90.9485 15.27567096 73266
STARLINK-32451          
1 61857U 24202N   26055.12698803 -.00001144  00000+0 -32054-4 0  9991
2 61857  43.0032 314.5660 0001369 272.4184  87.6511 15.27572334 73268
