[{"OBJECT_NAME":"STARLINK-32511","OBJECT_ID":"2024-196W","EPOCH":"2026-02-24T11:25:38.518464","MEAN_MOTION":15.30185726,"ECCENTRICITY":9.02e-5,"INCLINATION":53.1591,"RA_OF_ASC_NODE":162.7053,"ARG_OF_PERICENTER":98.2722,"MEAN_ANOMALY":261.8381,"EPHEMERIS_TYPE":0,"CLASSIFICATION_TYPE":"U","NORAD_CAT_ID":61727,"ELEMENT_SET_NO":999,"REV_AT_EPOCH":7513,"BSTAR":1.6899e-5,"MEAN_MOTION_DOT":1.41e-6,"MEAN_MOTION_DDOT":0},{"OBJECT_NAME":"STARLINK-32475","OBJECT_ID":"2024-196X","EPOCH":"2026-02-24T11:16:31.476000","MEAN_MOTION":15.30177718,"ECCENTRICITY":9.4e-5,"INCLINATION":53.1597,"RA_OF_ASC_NODE":162.6674,"ARG_OF_PERICENTER":72.5916,"MEAN_ANOMALY":287.5188,"EPHEMERIS_TYPE":0,"CLASSIFICATION_TYPE":"U","NORAD_CAT_ID":61728,"ELEMENT_SET_NO":999,"REV_AT_EPOCH":7513,"BSTAR":1.2401e-5,"MEAN_MOTION_DOT":8.0e-8,"MEAN_MOTION_DDOT":0},{"OBJECT_NAME":"STARLINK-32442","OBJECT_ID":"2024-196Y","EPOCH":"2026-02-24T11:21:04.211424","MEAN_MOTION":15.30214201,"ECCENTRICITY":0.0001636,"INCLINATION":53.1607,"RA_OF_ASC_NODE":162.6864,"ARG_OF_PERICENTER":83.3788,"MEAN_ANOMALY":276.7399,"EPHEMERIS_TYPE":0,"CLASSIFICATION_TYPE":"U","NORAD_CAT_ID":61729,"ELEMENT_SET_NO":999,"REV_AT_EPOCH":7513,"BSTAR":9.6715e-5,"MEAN_MOTION_DOT":2.507e-5,"MEAN_MOTION_DDOT":0},{"OBJECT_NAME":"STARLINK-32362","OBJECT_ID":"2024-202A","EPOCH":"2026-02-24T01:32:26.430720","MEAN_MOTION":15.2756736,"ECCENTRICITY":9.961e-5,"INCLINATION":43.0017,"RA_OF_ASC_NODE":303.7092,"ARG_OF_PERICENTER":261.3413,"MEAN_ANOMALY":98.7326,"EPHEMERIS_TYPE":0,"CLASSIFICATION_TYPE":"U","NORAD_CAT_ID":61845,"ELEMENT_SET_NO":999,"REV_AT_EPOCH":7396,"BSTAR":-7.173854e-6,"MEAN_MOTION_DOT":-4.59e-6,"MEAN_MOTION_DDOT":0},{"OBJECT_NAME":"STARLINK-32472","OBJECT_ID":"2024-202B","EPOCH":"2026-02-24T02:29:48.331104","MEAN_MOTION":15.27498632,"ECCENTRICITY":8.288e-5,"INCLINATION":43.0001,"RA_OF_ASC_NODE":304.0126,"ARG_OF_PERICENTER":240.3806,"MEAN_ANOMALY":119.6963,"EPHEMERIS_TYPE":0,"CLASSIFICATION_TYPE":"U","NORAD_CAT_ID":61846,"ELEMENT_SET_NO":999,"REV_AT_EPOCH":7337,"BSTAR":0.00047609038,"MEAN_MOTION_DOT":0.00012829,"MEAN_MOTION_DDOT":0},{"OBJECT_NAME":"STARLINK-32352","OBJECT_ID":"2024-202C","EPOCH":"2026-02-23T17:34:15.157632","MEAN_MOTION":15.27563095,"ECCENTRICITY":0.00012412,"INCLINATION":43.0026,"RA_OF_ASC_NODE":305.5148,"ARG_OF_PERICENTER":276.0546,"MEAN_ANOMALY":84.0165,"EPHEMERIS_TYPE":0,"CLASSIFICATION_TYPE":"U","NORAD_CAT_ID":61847,"ELEMENT_SET_NO":999,"REV_AT_EPOCH":7333,"BSTAR":4.3589118e-5,"MEAN_MOTION_DOT":9.37e-6,"MEAN_MOTION_DDOT":0},{"OBJECT_NAME":"STARLINK-32427","OBJECT_ID":"2024-202D","EPOCH":"2026-02-24T09:38:01.002336","MEAN_MOTION":15.27574449,"ECCENTRICITY":0.0001469,"INCLINATION":43.0038,"RA_OF_ASC_NODE":301.9376,"ARG_OF_PERICENTER":257.5558,"MEAN_ANOMALY":102.5129,"EPHEMERIS_TYPE":0,"CLASSIFICATION_TYPE":"U","NORAD_CAT_ID":61848,"ELEMENT_SET_NO":999,"REV_AT_EPOCH":7342,"BSTAR":-1.6665e-6,"MEAN_MOTION_DOT":-3.08e-6,"MEAN_MOTION_DDOT":0},{"OBJECT_NAME":"STARLINK-32346","OBJECT_ID":"2024-202E","EPOCH":"2026-02-24T09:43:35.094720","MEAN_MOTION":15.2753907,"ECCENTRICITY":0.0001702,"INCLINATION":43.0062,"RA_OF_ASC_NODE":301.964,"ARG_OF_PERICENTER":245.2523,"MEAN_ANOMALY":114.8152,"EPHEMERIS_TYPE":0,"CLASSIFICATION_TYPE":"U","NORAD_CAT_ID":61849,"ELEMENT_SET_NO":999,"REV_AT_EPOCH":7342,"BSTAR":0.00025209,"MEAN_MOTION_DOT":6.672e-5,"MEAN_MOTION_DDOT":0},{"OBJECT_NAME":"STARLINK-32330","OBJECT_ID":"2024-202F","EPOCH":"2026-02-24T02:25:51.091392","MEAN_MOTION":15.27580844,"ECCENTRICITY":0.00010217,"INCLINATION":43.0014,"RA_OF_ASC_NODE":314.3722,"ARG_OF_PERICENTER":265.1353,"MEAN_ANOMALY":94.9382,"EPHEMERIS_TYPE":0,"CLASSIFICATION_TYPE":"U","NORAD_CAT_ID":61850,"ELEMENT_SET_NO":999,"REV_AT_EPOCH":7326,"BSTAR":-7.524301e-6,"MEAN_MOTION_DOT":-4.69e-6,"MEAN_MOTION_DDOT":0},{"OBJECT_NAME":"STARLINK-32379","OBJECT_ID":"2024-202G","EPOCH":"2026-02-24T09:10:16.044960","MEAN_MOTION":15.27565736,"ECCENTRICITY":8.48e-5,"INCLINATION":43.0013,"RA_OF_ASC_NODE":301.7924,"ARG_OF_PERICENTER":284.662,"MEAN_ANOMALY":75.4138,"EPHEMERIS_TYPE":0,"CLASSIFICATION_TYPE":"U","NORAD_CAT_ID":61851,"ELEMENT_SET_NO":999,"REV_AT_EPOCH":7342,"BSTAR":1.6858e-5,"MEAN_MOTION_DOT":2.02e-6,"MEAN_MOTION_DDOT":0},{"OBJECT_NAME":"STARLINK-32433","OBJECT_ID":"2024-202H","EPOCH":"2026-02-24T10:22:11.025120","MEAN_MOTION":15.27585469,"ECCENTRICITY":0.0001545,"INCLINATION":43.003,"RA_OF_ASC_NODE":312.555,"ARG_OF_PERICENTER":267.0729,"MEAN_ANOMALY":92.9946,"EPHEMERIS_TYPE":0,"CLASSIFICATION_TYPE":"U","NORAD_CAT_ID":61852,"ELEMENT_SET_NO":999,"REV_AT_EPOCH":7331,"BSTAR":-0.00011303,"MEAN_MOTION_DOT":-3.372e-5,"MEAN_MOTION_DDOT":0},{"OBJECT_NAME":"STARLINK-32394","OBJECT_ID":"2024-202J","EPOCH":"2026-02-24T02:35:05.896896","MEAN_MOTION":15.27584466,"ECCENTRICITY":0.0001876,"INCLINATION":43.0043,"RA_OF_ASC_NODE":314.4192,"ARG_OF_PERICENTER":257.4661,"MEAN_ANOMALY":102.5981,"EPHEMERIS_TYPE":0,"CLASSIFICATION_TYPE":"U","NORAD_CAT_ID":61853,"ELEMENT_SET_NO":999,"REV_AT_EPOCH":7325,"BSTAR":-4.9707818e-5,"MEAN_MOTION_DOT":-1.63e-5,"MEAN_MOTION_DDOT":0},{"OBJECT_NAME":"STARLINK-32486","OBJECT_ID":"2024-202K","EPOCH":"2026-02-24T01:06:30.119616","MEAN_MOTION":15.27576915,"ECCENTRICITY":0.0001031,"INCLINATION":43.0042,"RA_OF_ASC_NODE":314.8171,"ARG_OF_PERICENTER":281.471,"MEAN_ANOMALY":78.6026,"EPHEMERIS_TYPE":0,"CLASSIFICATION_TYPE":"U","NORAD_CAT_ID":61854,"ELEMENT_SET_NO":999,"REV_AT_EPOCH":7325,"BSTAR":-2.4573905e-5,"MEAN_MOTION_DOT":-9.38e-6,"MEAN_MOTION_DDOT":0},{"OBJECT_NAME":"STARLINK-32391","OBJECT_ID":"2024-202L","EPOCH":"2026-02-24T02:46:13.099296","MEAN_MOTION":15.275663,"ECCENTRICITY":9.387e-5,"INCLINATION":43.003,"RA_OF_ASC_NODE":314.476,"ARG_OF_PERICENTER":271.0556,"MEAN_ANOMALY":89.0188,"EPHEMERIS_TYPE":0,"CLASSIFICATION_TYPE":"U","NORAD_CAT_ID":61855,"ELEMENT_SET_NO":999,"REV_AT_EPOCH":7325,"BSTAR":-2.0182805e-5,"MEAN_MOTION_DOT":-8.17e-6,"MEAN_MOTION_DDOT":0},{"OBJECT_NAME":"STARLINK-32483","OBJECT_ID":"2024-202M","EPOCH":"2026-02-24T02:51:45.575136","MEAN_MOTION":15.27567096,"ECCENTRICITY":9.689e-5,"INCLINATION":43.0004,"RA_OF_ASC_NODE":314.5063,"ARG_OF_PERICENTER":269.1256,"MEAN_ANOMALY":90.9485,"EPHEMERIS_TYPE":0,"CLASSIFICATION_TYPE":"U","NORAD_CAT_ID":61856,"ELEMENT_SET_NO":999,"REV_AT_EPOCH":7326,"BSTAR":7.6870834e-5,"MEAN_MOTION_DOT":1.853e-5,"MEAN_MOTION_DDOT":0},{"OBJECT_NAME":"STARLINK-32451","OBJECT_ID":"2024-202N","EPOCH":"2026-02-24T03:02:51.765792","MEAN_MOTION":15.27572334,"ECCENTRICITY":0.00013693,"INCLINATION":43.0032,"RA_OF_ASC_NODE":314.566,"ARG_OF_PERICENTER":272.4184,"MEAN_ANOMALY":87.6511,"EPHEMERIS_TYPE":0,"CLASSIFICATION_TYPE":"U","NORAD_CAT_ID":61857,"ELEMENT_SET_NO":999,"REV_AT_EPOCH":7326,"BSTAR":-3.2054375e-5,"MEAN_MOTION_DOT":-1.144e-5,"MEAN_MOTION_DDOT":0}]
